{
    "links": {
        "self": "http://www.neowsapp.com/rest/v1/neo/3596034?api_key=iIulBulltgU6a56xZRHN4H3l9WmuAYTsLGpBGhQ2"
    },
    "id": "3596034",
    "neo_reference_id": "3596034",
    "name": "(2012 BA14)",
    "designation": "2012 BA14",
    "nasa_jpl_url": "http://ssd.jpl.nasa.gov/sbdb.cgi?sstr=3596034",
    "absolute_magnitude_h": 24.9,
    "estimated_diameter": {
        "kilometers": {
            "estimated_diameter_min": 0.0278326768,
            "estimated_diameter_max": 0.0622357573
        },
        "meters": {
            "estimated_diameter_min": 27.8326768072,
            "estimated_diameter_max": 62.2357573367
        },
        "miles": {
            "estimated_diameter_min": 0.0172944182,
            "estimated_diameter_max": 0.0386714948
        },
        "feet": {
            "estimated_diameter_min": 91.3145593761,
            "estimated_diameter_max": 204.1855621004
        }
    },
    "is_potentially_hazardous_asteroid": false,
    "close_approach_data": [
        {
            "close_approach_date": "2012-01-15",
            "close_approach_date_full": "2012-Jan-15 11:30",
            "epoch_date_close_approach": 1326627000000,
            "relative_velocity": {
                "kilometers_per_second": "10.8863508081",
                "kilometers_per_hour": "39190.8629092345",
                "miles_per_hour": "24351.6781226852"
            },
            "miss_distance": {
                "astronomical": "0.0410328489",
                "lunar": "15.9617782221",
                "kilometers": "6138426.795471843",
                "miles": "3814241.5419757134"
            },
            "orbiting_body": "Earth"
        }
    ],
    "orbital_data": {
        "orbit_id": "8",
        "orbit_determination_date": "2017-04-06 08:51:21",
        "first_observation_date": "2012-01-20",
        "last_observation_date": "2012-01-26",
        "data_arc_in_days": 6,
        "observations_used": 52,
        "orbit_uncertainty": "8",
        "minimum_orbit_intersection": ".0394442",
        "jupiter_tisserand_invariant": "3.632",
        "epoch_osculation": "2455948.5",
        "eccentricity": ".5230592451610598",
        "semi_major_axis": "2.006727346383945",
        "inclination": "10.98194694453714",
        "ascending_node_longitude": "301.6379356178425",
        "orbital_period": "1038.319428453712",
        "perihelion_distance": ".9570900553403021",
        "perihelion_argument": "139.0662060046243",
        "aphelion_distance": "3.056364637427588",
        "perihelion_time": "2455915.506377313615",
        "mean_anomaly": "11.43935463558372",
        "mean_motion": ".3467141133399766",
        "equinox": "J2000",
        "orbit_class": {
            "orbit_class_type": "APO",
            "orbit_class_description": "Near-Earth asteroid orbits which cross the Earth’s orbit similar to that of 1862 Apollo",
            "orbit_class_range": "a (semi-major axis) > 1.0 AU; q (perihelion) < 1.017 AU"
        }
    },
    "is_sentry_object": false
}